NORAD_CAT_ID,OBJECT_NAME,OBJECT_TYPE,EPOCH,MEAN_MOTION,ECCENTRICITY,INCLINATION,RA_OF_ASC_NODE,ARG_OF_PERICENTER,MEAN_ANOMALY,BSTAR,MEAN_MOTION_DOT,MEAN_MOTION_DDOT,TLE_LINE0,TLE_LINE1,TLE_LINE2,SEMIMAJOR_AXIS,PERIOD,APOGEE,PERIGEE,DECAYED
54070.0,STARLINK-5181,PAYLOAD,2023-03-10 17:09:57,15.08847845,0.0001172,53.2174,219.3942,77.11,283.0023,0.00012322,1.674e-05,0.0,0 STARLINK-5181,1 54070U 22136V   23069.71524476  .00001674  00000-0  12322-3 0  9997,2 54070  53.2174 219.3942 0001172  77.1100 283.0023 15.08847845 21547,6917.856,95.437,540.532,538.911,0.0
54070.0,STARLINK-5181,PAYLOAD,2023-03-11 12:14:35,15.08838126,0.0002164,53.2128,215.8261,86.8923,273.2317,3.4865e-05,2.67e-06,0.0,0 STARLINK-5181,1 54070U 22136V   23070.51013215  .00000267  00000-0  34865-4 0  9995,2 54070  53.2128 215.8261 0002164  86.8923 273.2317 15.08838126 21665,6917.886,95.438,541.248,538.254,0.0
54070.0,STARLINK-5181,PAYLOAD,2023-03-11 18:36:07,15.08853681,0.0001459,53.2171,214.6375,87.0306,273.0853,0.00022292,3.263e-05,0.0,0 STARLINK-5181,1 54070U 22136V   23070.77508469  .00003263  00000-0  22292-3 0  9992,2 54070  53.2171 214.6375 0001459  87.0306 273.0853 15.08853681 22184,6917.839,95.437,540.713,538.694,0.0
54070.0,STARLINK-5181,PAYLOAD,2023-03-11 20:11:30,15.0885791,0.0001152,53.2165,214.3391,114.916,245.1951,0.00039637,6.029e-05,0.0,0 STARLINK-5181,1 54070U 22136V   23070.84132061  .00006029  00000-0  39637-3 0  9995,2 54070  53.2165 214.3391 0001152 114.9160 245.1951 15.08857910 21716,6917.826,95.436,540.488,538.894,0.0
54070.0,STARLINK-5181,PAYLOAD,2023-03-12 08:54:36,15.08832191,0.0001903,53.2163,211.9626,91.2319,268.8891,7.0523e-06,-1.76e-06,0.0,0 STARLINK-5181,1 54070U 22136V   23071.37125588 -.00000176  00000-0  70523-5 0  9999,2 54070  53.2163 211.9626 0001903  91.2319 268.8891 15.08832191 22276,6917.904,95.438,541.086,538.453,0.0
54070.0,STARLINK-5181,PAYLOAD,2023-03-12 12:05:22,15.08830482,0.0001762,53.2163,211.3677,95.1992,264.9201,-1.4179e-05,-5.14e-06,0.0,0 STARLINK-5181,1 54070U 22136V   23071.50373781 -.00000514  00000-0 -14179-4 0  9995,2 54070  53.2163 211.3677 0001762  95.1992 264.9201 15.08830482 21811,6917.909,95.438,540.993,538.556,0.0
54070.0,STARLINK-5181,PAYLOAD,2023-03-12 18:26:55,15.08840134,0.0001665,53.2162,210.1782,83.0059,277.1122,0.0001327,1.825e-05,0.0,0 STARLINK-5181,1 54070U 22136V   23071.76869460  .00001825  00000-0  13270-3 0  9991,2 54070  53.2162 210.1782 0001665  83.0059 277.1122 15.08840134 21853,6917.88,95.438,540.897,538.593,0.0
54070.0,STARLINK-5181,PAYLOAD,2023-03-12 21:37:40,15.08848857,0.0001305,53.217,209.5813,93.5135,266.6007,0.00032903,4.954e-05,0.0,0 STARLINK-5181,1 54070U 22136V   23071.90116897  .00004954  00000-0  32903-3 0  9996,2 54070  53.2170 209.5813 0001305  93.5135 266.6007 15.08848857 22352,6917.853,95.437,540.621,538.816,0.0
54070.0,STARLINK-5181,PAYLOAD,2023-03-13 11:56:10,15.08819838,0.0001197,53.2174,206.9077,74.4698,285.6426,-9.6935e-05,-1.829e-05,0.0,0 STARLINK-5181,1 54070U 22136V   23072.49734880 -.00001829  00000-0 -96935-4 0  9995,2 54070  53.2174 206.9077 0001197  74.4698 285.6426 15.08819838 22443,6917.942,95.439,540.635,538.979,0.0
54070.0,STARLINK-5181,PAYLOAD,2023-03-14 08:36:10,15.08848853,0.0001922,53.2164,203.0397,114.3785,245.7408,0.00015198,2.132e-05,0.0,0 STARLINK-5181,1 54070U 22136V   23073.35845432  .00002132  00000-0  15198-3 0  9994,2 54070  53.2164 203.0397 0001922 114.3785 245.7408 15.08848853 22572,6917.853,95.437,541.048,538.389,0.0
54070.0,STARLINK-5181,PAYLOAD,2023-03-14 14:57:42,15.08861262,6.31e-05,53.2174,201.8482,109.1298,250.9763,0.00036359,5.507e-05,0.0,0 STARLINK-5181,1 54070U 22136V   23073.62340879  .00005507  00000-0  36359-3 0  9990,2 54070  53.2174 201.8482 0000631 109.1298 250.9763 15.08861262 22134,6917.815,95.436,540.117,539.244,0.0
54070.0,STARLINK-5181,PAYLOAD,2023-03-14 16:33:05,15.08865052,0.0001529,53.2166,201.5521,98.524,261.5925,0.00043627,6.667e-05,0.0,0 STARLINK-5181,1 54070U 22136V   23073.68964788  .00006667  00000-0  43627-3 0  9991,2 54070  53.2166 201.5521 0001529  98.5240 261.5925 15.08865052 22624,6917.804,95.436,540.727,538.611,0.0
54070.0,STARLINK-5181,PAYLOAD,2023-03-15 11:37:43,15.08860951,0.0002027,53.2145,197.9857,93.021,267.1014,0.000348,5.258e-05,0.0,0 STARLINK-5181,1 54070U 22136V   23074.48452699  .00005258  00000-0  34800-3 0  9991,2 54070  53.2145 197.9857 0002027  93.0210 267.1014 15.08860951 22749,6917.816,95.436,541.084,538.279,0.0
54070.0,STARLINK-5181,PAYLOAD,2023-03-16 09:53:07,15.0884232,0.0001717,53.2152,193.8244,87.897,272.2219,-0.00016063,-2.844e-05,0.0,0 STARLINK-5181,1 54070U 22136V   23075.41188965 -.00002844  00000-0 -16063-3 0  9998,2 54070  53.2152 193.8244 0001717  87.8970 272.2219 15.08842320 22880,6917.873,95.437,540.926,538.55,0.0
54070.0,STARLINK-5181,PAYLOAD,2023-03-16 19:25:25,15.08848712,9.89e-05,53.2155,192.0399,79.0255,281.0849,7.5604e-05,9.16e-06,0.0,0 STARLINK-5181,1 54070U 22136V   23075.80932540  .00000916  00000-0  75604-4 0  9990,2 54070  53.2155 192.0399 0000989  79.0255 281.0849 15.08848712 22466,6917.854,95.437,540.403,539.035,0.0
54070.0,STARLINK-5181,PAYLOAD,2023-03-17 06:33:09,15.08806575,9.94e-05,53.2174,189.96,65.5332,294.5764,-0.00053296,-8.752e-05,0.0,0 STARLINK-5181,1 54070U 22136V   23076.27302817 -.00008752  00000-0 -53296-3 0  9990,2 54070  53.2174 189.9600 0000994  65.5332 294.5764 15.08806575 23017,6917.983,95.44,540.535,539.16,0.0
54070.0,STARLINK-5181,PAYLOAD,2023-03-17 14:30:05,15.08828213,0.0001367,53.2186,188.4742,94.5478,265.567,-0.00010876,-2.018e-05,0.0,0 STARLINK-5181,1 54070U 22136V   23076.60422572 -.00002018  00000-0 -10876-3 0  9994,2 54070  53.2186 188.4742 0001367  94.5478 265.5670 15.08828213 23061,6917.916,95.438,540.727,538.836,0.0
54070.0,STARLINK-5181,PAYLOAD,2023-03-17 17:40:51,15.08832265,0.0001155,53.216,187.8763,93.3217,266.7907,-2.424e-05,-6.73e-06,0.0,0 STARLINK-5181,1 54070U 22136V   23076.73670430 -.00000673  00000-0 -24240-4 0  9992,2 54070  53.2160 187.8763 0001155  93.3217 266.7907 15.08832265 22609,6917.904,95.438,540.568,538.97,0.0
54070.0,STARLINK-5181,PAYLOAD,2023-03-18 14:20:51,15.08880101,0.0001167,53.2168,184.0111,107.6898,252.4222,0.0014679,0.00023176,0.0,0 STARLINK-5181,1 54070U 22136V   23077.59781922  .00023176  00000-0  14679-2 0  9990,2 54070  53.2168 184.0111 0001167 107.6898 252.4222 15.08880101 23212,6917.758,95.435,540.43,538.816,0.0
54070.0,STARLINK-5181,PAYLOAD,2023-03-18 19:07:00,15.0890041,0.0001085,53.2162,183.1185,101.9059,258.2055,0.0019871,0.00031531,0.0,0 STARLINK-5181,1 54070U 22136V   23077.79653173  .00031531  00000-0  19871-2 0  9991,2 54070  53.2162 183.1185 0001085 101.9059 258.2055 15.08900410 22765,6917.696,95.434,540.311,538.81,0.0
54070.0,STARLINK-5181,PAYLOAD,2023-03-19 06:14:42,15.08852701,0.0001465,53.2164,181.0367,99.3087,260.807,0.00014656,2.046e-05,0.0,0 STARLINK-5181,1 54070U 22136V   23078.26021569  .00002046  00000-0  14656-3 0  9998,2 54070  53.2164 181.0367 0001465  99.3087 260.8070 15.08852701 23316,6917.842,95.437,540.72,538.693,0.0
54070.0,STARLINK-5181,PAYLOAD,2023-03-19 12:36:15,15.08856451,0.000132,53.2164,179.8479,102.9727,257.1412,0.0013839,0.00021815,0.0,0 STARLINK-5181,1 54070U 22136V   23078.52517496  .00021815  00000-0  13839-2 0  9992,2 54070  53.2164 179.8479 0001320 102.9727 257.1412 15.08856451 22872,6917.83,95.437,540.608,538.782,0.0
54070.0,STARLINK-5181,PAYLOAD,2023-03-19 17:22:24,15.08866972,0.0001378,53.2164,178.9559,101.0926,259.0221,0.0020855,0.00033083,0.0,0 STARLINK-5181,1 54070U 22136V   23078.72389306  .00033083  00000-0  20855-2 0  9997,2 54070  53.2164 178.9559 0001378 101.0926 259.0221 15.08866972 23380,6917.798,95.436,540.616,538.71,0.0
54070.0,STARLINK-5181,PAYLOAD,2023-03-20 06:05:30,15.08844891,0.0002886,53.2163,176.5767,83.7038,276.4282,0.0011169,0.00017535,0.0,0 STARLINK-5181,1 54070U 22136V   23079.25382265  .00017535  00000-0  11169-2 0  9995,2 54070  53.2163 176.5767 0002886  83.7038 276.4282 15.08844891 23464,6917.865,95.437,541.727,537.734,0.0
54070.0,STARLINK-5181,PAYLOAD,2023-03-20 12:27:02,15.0883503,0.0001267,53.216,175.3872,94.8234,265.2903,0.0014205,0.00022388,0.0,0 STARLINK-5181,1 54070U 22136V   23079.51878143  .00022388  00000-0  14205-2 0  9995,2 54070  53.2160 175.3872 0001267  94.8234 265.2903 15.08835030 23021,6917.896,95.438,540.637,538.884,0.0
54070.0,STARLINK-5181,PAYLOAD,2023-03-20 15:37:49,15.08847837,0.0001338,53.2162,174.7927,85.3336,274.7809,0.0022116,0.00035093,0.0,0 STARLINK-5181,1 54070U 22136V   23079.65126179  .00035093  00000-0  22116-2 0  9992,2 54070  53.2162 174.7927 0001338  85.3336 274.7809 15.08847837 23044,6917.856,95.437,540.647,538.796,0.0
54070.0,STARLINK-5181,PAYLOAD,2023-03-20 23:34:44,15.08845277,0.000158,53.2164,173.3066,77.1119,283.005,0.0014919,0.00023539,0.0,0 STARLINK-5181,1 54070U 22136V   23079.98246500  .00023539  00000-0  14919-2 0  9993,2 54070  53.2164 173.3066 0001580  77.1119 283.0050 15.08845277 23577,6917.864,95.437,540.822,538.636,0.0
54070.0,STARLINK-5181,PAYLOAD,2023-03-21 12:17:49,15.08857742,0.0001671,53.2162,170.9282,74.3923,285.7253,0.0010706,0.000168,0.0,0 STARLINK-5181,1 54070U 22136V   23080.51238176  .00016800  00000-0  10706-2 0  9997,2 54070  53.2162 170.9282 0001671  74.3923 285.7253 15.08857742 23171,6917.826,95.436,540.847,538.535,0.0
54070.0,STARLINK-5181,PAYLOAD,2023-03-21 23:25:31,15.08855146,0.0001903,53.2159,168.8486,67.2838,292.8355,0.00059954,9.27e-05,0.0,0 STARLINK-5181,1 54070U 22136V   23080.97605997  .00009270  00000-0  59954-3 0  9998,2 54070  53.2159 168.8486 0001903  67.2838 292.8355 15.08855146 23722,6917.834,95.437,541.016,538.383,0.0
54070.0,STARLINK-5181,PAYLOAD,2023-03-22 12:08:36,15.08845311,0.0001754,53.2172,166.4658,98.7573,261.3617,0.00018693,2.689e-05,0.0,0 STARLINK-5181,1 54070U 22136V   23081.50598031  .00002689  00000-0  18693-3 0  9990,2 54070  53.2172 166.4658 0001754  98.7573 261.3617 15.08845311 23805,6917.864,95.437,540.943,538.516,0.0
